OBJECT_NAME,OBJECT_ID,EPOCH,MEAN_MOTION,ECCENTRICITY,INCLINATION,RA_OF_ASC_NODE,ARG_OF_PERICENTER,MEAN_ANOMALY,EPHEMERIS_TYPE,CLASSIFICATION_TYPE,NORAD_CAT_ID,ELEMENT_SET_NO,REV_AT_EPOCH,BSTAR,MEAN_MOTION_DOT,MEAN_MOTION_DDOT
ALOS-2,2014-029A,2026-06-15T05:53:26.539584,14.79467289,.00016642,97.9222,263.4362,92.6302,267.5100,0,U,39766,999,65129,.22292079E-3,.1614E-4,0
KAZEOSAT 2,2014-033A,2026-06-15T06:38:17.094336,14.85467519,.00081102,97.5405,5.9900,336.5182,23.5663,0,U,40010,999,64867,.25659817E-4,.171E-5,0
HODOYOSHI-4,2014-033B,2026-06-15T06:51:35.494272,14.88126820,.0022587,97.5449,351.2005,315.2362,44.7032,0,U,40011,999,64852,.1562736E-3,.1392E-4,0
DEIMOS-2,2014-033D,2026-06-15T05:46:17.930784,14.93719122,.00015874,97.5836,40.7983,46.7931,313.3422,0,U,40013,999,63743,.83943835E-4,.834E-5,0
HODOYOSHI-3,2014-033F,2026-06-14T23:05:17.822976,14.85384521,.0032911,97.6415,329.0921,4.6572,355.4943,0,U,40015,999,64729,.11255E-3,.925E-5,0
SPOT 7,2014-034A,2026-06-15T06:19:59.636352,14.60956393,.00012062,98.0635,228.8048,91.3962,268.7377,0,U,40053,999,63685,.5142938E-4,.207E-5,0
SKYSAT-B,2014-037D,2026-06-15T05:48:55.372320,14.88023189,.00042582,98.3839,125.0964,290.1510,69.9246,0,U,40072,999,64567,.13568216E-3,.1184E-4,0
WORLDVIEW-3 (WV-3),2014-048A,2026-06-15T06:44:13.649856,14.85019163,.00011418,97.8566,241.1398,28.6161,331.5116,0,U,40115,999,64162,.88878344E-4,.705E-5,0
GAOFEN-2,2014-049A,2026-06-15T06:49:36.740928,14.80898394,.00060388,98.0115,230.4931,234.2633,125.8018,0,U,40118,999,63895,.12300367E-3,.897E-5,0
YAOGAN-21,2014-053A,2026-06-15T06:16:28.268256,15.26348613,.00099463,97.1474,206.5796,99.2714,260.9650,0,U,40143,999,65466,.23244714E-3,.5979E-4,0
YAOGAN-22,2014-063A,2026-06-15T06:49:33.187296,13.15531103,.00062969,100.7721,317.5260,189.5788,170.5204,0,U,40275,999,55956,.28675639E-4,-.36E-6,0
ASNARO,2014-070A,2026-06-15T05:59:12.205248,15.19409117,.00054536,97.3459,242.4154,170.6395,189.4942,0,U,40298,999,64371,.25561414E-3,.5348E-4,0
YAOGAN-24,2014-072A,2026-06-15T07:40:29.183808,14.76219987,.00125352,98.1481,303.6415,270.3891,89.5881,0,U,40310,999,62344,.50348386E-4,.295E-5,0
CBERS 4,2014-079A,2026-06-15T07:04:18.937632,14.35507975,.00018761,98.3538,223.1855,65.8914,294.2468,0,U,40336,999,60368,-.10240681E-4,-.72E-6,0
YAOGAN-26,2014-088A,2026-06-15T06:11:41.301888,15.47291038,.00061373,97.0635,166.5122,71.0511,289.1405,0,U,40362,999,63740,.48452277E-3,.24679E-3,0
SMAP,2015-003A,2026-06-15T05:36:34.300512,14.63365048,.00013073,98.1276,173.3559,95.8283,264.3068,0,U,40376,999,60733,.79023594E-4,.361E-5,0
KOMPSAT-3A,2015-014A,2026-06-15T05:53:42.075168,15.53913506,.00563508,97.6881,157.4659,181.5668,178.5418,0,U,40536,999,62151,.28737398E-3,.19759E-3,0
SENTINEL-2A,2015-028A,2026-06-15T06:09:34.181568,14.30814514,.00010869,98.5690,241.1355,89.7609,270.3699,0,U,40697,999,57345,.23856328E-4,.19E-6,0
GAOFEN-8,2015-030A,2026-06-15T06:36:31.612896,15.45887836,.00085046,97.6897,359.5304,193.8568,166.2448,0,U,40701,999,61115,.30144137E-3,.14579E-3,0
CARBONITE 1 (CBNT-1),2015-032D,2026-06-15T07:03:24.354432,14.83580178,.00132833,97.6498,344.4396,304.8613,55.1352,0,U,40718,999,58906,.10930244E-3,.851E-5,0
YAOGAN-27,2015-040A,2026-06-15T06:43:18.982848,13.16068940,.00076214,100.1144,152.7454,215.3440,144.7170,0,U,40878,999,51741,-.65307619E-3,-.29E-5,0
GAOFEN-9 01,2015-047A,2026-06-15T07:23:44.538432,14.82880485,.00282788,97.6275,202.0883,143.7430,216.5708,0,U,40894,999,57991,.10942328E-3,.842E-5,0
YAOGAN-28,2015-064A,2026-06-15T07:00:16.997760,15.27399172,.00104437,97.3073,304.5916,189.9326,170.1709,0,U,41026,999,59039,.19311691E-3,.5114E-4,0
YAOGAN-29,2015-069A,2026-06-15T08:32:53.430144,14.83082470,.00026649,98.0027,194.9859,57.0333,303.1136,0,U,41038,999,57035,.15903398E-4,.75E-6,0
KENT RIDGE 1,2015-077B,2026-06-14T16:11:56.917248,15.23119109,.00082403,14.9792,284.6775,203.0027,156.9926,0,U,41167,999,58071,.13030832E-3,.3934E-4,0
GAOFEN-4,2015-083A,2026-06-15T06:43:10.962336,1.00269651,.00043713,0.3515,83.8252,114.9737,271.2675,0,U,41194,999,3851,0,-.331E-5,0
JASON-3,2016-002A,2026-06-15T05:11:21.750144,12.87628016,.00085427,66.0401,129.9786,272.9061,87.0980,0,U,41240,999,48699,-.27540123E-4,-.69E-6,0
SENTINEL-3A,2016-011A,2026-06-15T06:04:12.408960,14.26739467,.00013903,98.6249,233.6643,102.3738,257.7599,0,U,41335,999,53778,.562674E-4,.93E-6,0
ZIYUAN 3-02 (ZY 3-02),2016-033A,2026-06-15T06:46:41.774016,15.21465286,.00112269,97.3840,242.0936,297.3454,62.6639,0,U,41556,999,55769,.21098371E-3,.468E-4,0
CARTOSAT-2C,2016-040A,2026-06-15T06:46:15.738240,15.19306742,.00104656,97.4490,226.2862,137.0248,223.1806,0,U,41599,999,55342,.21224234E-3,.4418E-4,0
