ALOS-2                  
1 39766U 14029A   26166.24544606  .00001614  00000+0  22292-3 0  9990
2 39766  97.9222 263.4362 0001664  92.6302 267.5100 14.79467289651290
KAZEOSAT 2              
1 40010U 14033A   26166.27658674  .00000171  00000+0  25660-4 0  9993
2 40010  97.5405   5.9900 0008110 336.5182  23.5663 14.85467519648674
HODOYOSHI-4             
1 40011U 14033B   26166.28582748  .00001392  00000+0  15627-3 0  9990
2 40011  97.5449 351.2005 0022587 315.2362  44.7032 14.88126820648523
DEIMOS-2                
1 40013U 14033D   26166.24048531  .00000834  00000+0  83944-4 0  9993
2 40013  97.5836  40.7983 0001587  46.7931 313.3422 14.93719122637430
HODOYOSHI-3             
1 40015U 14033F   26165.96201184  .00000925  00000+0  11255-3 0  9994
2 40015  97.6415 329.0921 0032911   4.6572 355.4943 14.85384521647292
SPOT 7                  
1 40053U 14034A   26166.26388468  .00000207  00000+0  51429-4 0  9993
2 40053  98.0635 228.8048 0001206  91.3962 268.7377 14.60956393636850
SKYSAT-B                
1 40072U 14037D   26166.24230755  .00001184  00000+0  13568-3 0  9996
2 40072  98.3839 125.0964 0004258 290.1510  69.9246 14.88023189645677
WORLDVIEW-3 (WV-3)      
1 40115U 14048A   26166.28071354  .00000705  00000+0  88878-4 0  9993
2 40115  97.8566 241.1398 0001141  28.6161 331.5116 14.85019163641620
GAOFEN-2                
1 40118U 14049A   26166.28445302  .00000897  00000+0  12300-3 0  9993
2 40118  98.0115 230.4931 0006038 234.2633 125.8018 14.80898394638952
YAOGAN-21               
1 40143U 14053A   26166.26143829  .00005979  00000+0  23245-3 0  9999
2 40143  97.1474 206.5796 0009946  99.2714 260.9650 15.26348613654665
YAOGAN-22               
1 40275U 14063A   26166.28441189 -.00000036  00000+0  28676-4 0  9992
2 40275 100.7721 317.5260 0006296 189.5788 170.5204 13.15531103559563
ASNARO                  
1 40298U 14070A   26166.24944682  .00005348  00000+0  25561-3 0  9996
2 40298  97.3459 242.4154 0005453 170.6395 189.4942 15.19409117643718
YAOGAN-24               
1 40310U 14072A   26166.31978222  .00000295  00000+0  50348-4 0  9996
2 40310  98.1481 303.6415 0012535 270.3891  89.5881 14.76219987623441
CBERS 4                 
1 40336U 14079A   26166.29466363 -.00000072  00000+0 -10241-4 0  9999
2 40336  98.3538 223.1855 0001876  65.8914 294.2468 14.35507975603689
YAOGAN-26               
1 40362U 14088A   26166.25811692  .00024679  00000+0  48452-3 0  9994
2 40362  97.0635 166.5122 0006137  71.0511 289.1405 15.47291038637401
SMAP                    
1 40376U 15003A   26166.23373033  .00000361  00000+0  79024-4 0  9999
2 40376  98.1276 173.3559 0001307  95.8283 264.3068 14.63365048607332
KOMPSAT-3A              
1 40536U 15014A   26166.24562587  .00019759  00000+0  28737-3 0  9999
2 40536  97.6881 157.4659 0056350 181.5668 178.5418 15.53913506621517
SENTINEL-2A             
1 40697U 15028A   26166.25664562  .00000019  00000+0  23856-4 0  9996
2 40697  98.5690 241.1355 0001086  89.7609 270.3699 14.30814514573451
GAOFEN-8                
1 40701U 15030A   26166.27536589  .00014579  00000+0  30144-3 0  9997
2 40701  97.6897 359.5304 0008504 193.8568 166.2448 15.45887836611156
CARBONITE 1 (CBNT-1)    
1 40718U 15032D   26166.29403188  .00000851  00000+0  10930-3 0  9996
2 40718  97.6498 344.4396 0013283 304.8613  55.1352 14.83580178589064
YAOGAN-27               
1 40878U 15040A   26166.28008082 -.00000290  00000+0 -65308-3 0  9993
2 40878 100.1144 152.7454 0007621 215.3440 144.7170 13.16068940517413
GAOFEN-9 01             
1 40894U 15047A   26166.30815438  .00000842  00000+0  10942-3 0  9997
2 40894  97.6275 202.0883 0028278 143.7430 216.5708 14.82880485579913
YAOGAN-28               
1 41026U 15064A   26166.29186340  .00005114  00000+0  19312-3 0  9992
2 41026  97.3073 304.5916 0010443 189.9326 170.1709 15.27399172590399
YAOGAN-29               
1 41038U 15069A   26166.35617396  .00000075  00000+0  15903-4 0  9991
2 41038  98.0027 194.9859 0002664  57.0333 303.1136 14.83082470570352
KENT RIDGE 1            
1 41167U 15077B   26165.67496432  .00003934  00000+0  13031-3 0  9999
2 41167  14.9792 284.6775 0008240 203.0027 156.9926 15.23119109580711
GAOFEN-4                
1 41194U 15083A   26166.27998799 -.00000331  00000+0  00000+0 0  9993
2 41194   0.3515  83.8252 0004371 114.9737 271.2675  1.00269651 38517
JASON-3                 
1 41240U 16002A   26166.21622396 -.00000069  00000+0 -27540-4 0  9990
2 41240  66.0401 129.9786 0008542 272.9061  87.0980 12.87628016486997
SENTINEL-3A             
1 41335U 16011A   26166.25292140  .00000093  00000+0  56267-4 0  9992
2 41335  98.6249 233.6643 0001390 102.3738 257.7599 14.26739467537783
ZIYUAN 3-02 (ZY 3-02)   
1 41556U 16033A   26166.28242794  .00004680  00000+0  21098-3 0  9993
2 41556  97.3840 242.0936 0011226 297.3454  62.6639 15.21465286557690
CARTOSAT-2C             
1 41599U 16040A   26166.28212660  .00004418  00000+0  21224-3 0  9997
2 41599  97.4490 226.2862 0010465 137.0248 223.1806 15.19306742553421
